GSAT0101 (PRN E11)      
1 37846U 11060A   23038.47271617 -.00000070  00000+0  00000+0 0  9993
2 37846  57.0692  14.9544 0003624 342.0032  17.9753  1.70476117 70222
GSAT0102 (PRN E12)      
1 37847U 11060B   23038.39770153 -.00000070  00000+0  00000+0 0  9994
2 37847  57.0696  14.9562 0005124 322.6693  38.0175  1.70475456 70239
GSAT0103 (PRN E19)      
1 38857U 12055A   23038.51165849  .00000000  00000+0  00000+0 0  9997
2 38857  55.2090 135.2346 0003839 252.8993 107.0770  1.70473562 64253
GSAT0104 (PRN E20)      
1 38858U 12055B   23038.48141260  .00000000  00000+0  00000+0 0  9995
2 38858  55.2098 135.2371 0001767 223.5257 136.4784  1.70473832 64224
GSAT0201 (PRN E18)      
1 40128U 14050A   23035.51745334 -.00000089  00000+0  00000+0 0  9996
2 40128  50.1138 323.0310 1612466 132.4144 242.4161  1.85519599 55521
GSAT0202 (PRN E14)      
1 40129U 14050B   23038.47258963 -.00000076  00000+0  00000+0 0  9998
2 40129  50.1334 321.9799 1609848 133.3277 241.2821  1.85520142 57747
GSAT0203 (PRN E26)      
1 40544U 15017A   23037.07889502 -.00000074  00000+0  00000+0 0  9995
2 40544  56.8644  14.9934 0004724 278.7572  81.1813  1.70477192 48289
GSAT0204 (PRN E22)      
1 40545U 15017B   23036.74563522 -.00000075  00000+0  00000+0 0  9991
2 40545  56.8694  15.0160 0004181 267.0682  92.8762  1.70475707 11325
GSAT0205 (PRN E24)      
1 40889U 15045A   23038.27364126  .00000060  00000+0  00000+0 0  9995
2 40889  55.4795 255.4740 0006464  30.8297 329.2725  1.70473360 46115
GSAT0206 (PRN E30)      
1 40890U 15045B   23034.97485960  .00000058  00000+0  00000+0 0  9997
2 40890  55.4790 255.5610 0004535  30.6524 329.4513  1.70473433 46081
GSAT0209 (PRN E09)      
1 41174U 15079A   23039.25338409  .00000005  00000+0  00000+0 0  9993
2 41174  55.2270 134.9197 0003088 302.2214  57.7727  1.70475029 44476
GSAT0208 (PRN E08)      
1 41175U 15079B   23038.88633347  .00000003  00000+0  00000+0 0  9999
2 41175  55.2252 134.9281 0002336 300.5118  59.4868  1.70474866 44462
GSAT0211 (PRN E02)      
1 41549U 16030A   23036.07368906  .00000060  00000+0  00000+0 0  9990
2 41549  55.6244 255.4884 0004468   1.7528 358.3235  1.70473448 41734
GSAT0210 (PRN E01)      
1 41550U 16030B   23036.95198383  .00000060  00000+0  00000+0 0  9999
2 41550  55.6242 255.4654 0002479 346.3740  13.6905  1.70474944 41741
GSAT0207 (PRN E07)      
1 41859U 16069A   23036.02787269 -.00000017  00000+0  00000+0 0  9991
2 41859  54.8874 135.1322 0003327 283.7104  76.2518  1.70474957 38466
GSAT0212 (PRN E03)      
1 41860U 16069B   23039.40149772  .00000005  00000+0  00000+0 0  9995
2 41860  54.8860 135.0358 0001806 314.9043  45.1054  1.70473646 38778
GSAT0213 (PRN E04)      
1 41861U 16069C   23036.83376528 -.00000012  00000+0  00000+0 0  9990
2 41861  54.8877 135.1127 0003499 257.1600 102.8064  1.70473683 38592
GSAT0214 (PRN E05)      
1 41862U 16069D   23038.15410652 -.00000002  00000+0  00000+0 0  9994
2 41862  54.8863 135.0703 0002612 256.7049 103.2818  1.70473766 38746
GSAT0215 (PRN E21)      
1 43055U 17079A   23038.05765022  .00000061  00000+0  00000+0 0  9999
2 43055  55.5969 255.2626 0001934 355.2710   4.7924  1.70474118 32088
GSAT0216 (PRN E25)      
1 43056U 17079B   23037.17654771  .00000060  00000+0  00000+0 0  9999
2 43056  55.6008 255.2867 0003122 323.6505  36.3981  1.70474266 32081
GSAT0217 (PRN E27)      
1 43057U 17079C   23037.98343077  .00000061  00000+0  00000+0 0  9994
2 43057  55.5984 255.2640 0003461 342.1095  17.9439  1.70474132 32084
GSAT0218 (PRN E31)      
1 43058U 17079D   23038.79002293  .00000061  00000+0  00000+0 0  9997
2 43058  55.5982 255.2390 0003076 311.3825  48.6522  1.70474191 32096
GSAT0221 (PRN E15)      
1 43564U 18060A   23038.10188525 -.00000071  00000+0  00000+0 0  9990
2 43564  57.2458  14.8407 0005519 289.5150  70.4166  1.70475790 28261
GSAT0222 (PRN E33)      
1 43565U 18060B   23037.73518146 -.00000072  00000+0  00000+0 0  9996
2 43565  57.2473  14.8516 0005233 296.3292  63.6083  1.70475756 28305
GSAT0219 (PRN E36)      
1 43566U 18060C   23039.12888583 -.00000068  00000+0  00000+0 0  9992
2 43566  57.2483  14.8159 0004909 298.2606  61.6813  1.70475737 28307
GSAT0220 (PRN E13)      
1 43567U 18060D   23037.00283826 -.00000074  00000+0  00000+0 0  9994
2 43567  57.2478  14.8738 0005121 292.1294  67.8078  1.70475868 28258
GSAT0223                
1 49809U 21116A   23039.20036656 -.00000068  00000+0  00000+0 0  9999
2 49809  57.2424  14.7120 0002249 261.2105  97.5683  1.70475969  7299
GSAT0224                
1 49810U 21116B   23037.56138705 -.00000072  00000+0  00000+0 0  9991
2 49810  57.2388  14.7539 0001914 274.4633 270.9118  1.70476000  7280
